0 DIAMANT R/B
1 01805U 65096B   13282.06138626  .00000619  00000-0  13614-3 0  2153
2 01805 034.2518 142.3981 0635044 256.5862 096.3281 13.75310298363766
0 DIAMANT R/B
1 01805U 65096B   13283.07780329  .00000604  00000-0  13294-3 0  2167
2 01805 034.2516 137.2735 0634995 264.0631 088.7348 13.75312071363902
0 DIAMANT R/B
1 01805U 65096B   13285.76416295  .00000597  00000-0  13231-3 0  2187
2 01805 034.2509 123.7295 0634815 283.8278 069.2565 13.75314260364270
0 DIAMANT R/B
1 01805U 65096B   13286.78066483  .00000672  00000-0  14951-3 0  2195
2 01805 034.2508 118.6043 0634721 291.3057 062.1004 13.75315205364414
0 DIAMANT R/B
1 01805U 65096B   13287.94240753  .00000960  00000-0  21477-3 0  2201
2 01805 034.2504 112.7470 0634612 299.8595 054.0454 13.75318537364575
0 DIAMANT R/B
1 01805U 65096B   13289.46722890  .00000663  00000-0  14890-3 0  2219
2 01805 034.2500 105.0589 0634452 311.0822 043.6675 13.75321534364782
0 DIAMANT R/B
1 01805U 65096B   13290.48379585  .00000756  00000-0  17045-3 0  2221
2 01805 034.2497 099.9335 0634368 318.5707 036.8473 13.75322778364924
0 DIAMANT R/B
1 01805U 65096B   13291.50037577  .00000727  00000-0  16457-3 0  2232
2 01805 034.2496 094.8080 0634289 326.0587 030.0985 13.75323862365061
0 DIAMANT R/B
1 01805U 65096B   13292.51696678  .00000758  00000-0  17197-3 0  2244
2 01805 034.2494 089.6825 0634200 333.5458 023.4095 13.75324643365203
0 DIAMANT R/B
1 01805U 65096B   13293.82402478  .00000810  00000-0  18448-3 0  2252
2 01805 034.2493 083.0923 0634111 343.1768 014.8713 13.75326167365384
0 DIAMANT R/B
1 01805U 65096B   13294.84063194  .00000749  00000-0  17146-3 0  2269
2 01805 034.2491 077.9667 0634025 350.6626 008.2705 13.75326892365528
0 DIAMANT R/B
1 01805U 65096B   13295.85724196  .00000678  00000-0  15590-3 0  2270
2 01805 034.2492 072.8410 0634019 358.1576 001.6781 13.75328397365667
